CZ-6A DEB               
1 54297U 22151AQ  22338.45141518  .00000806  00000+0  38529-3 0  9998
2 54297  98.7536 343.1221 0027562 133.5729 226.7743 14.21744361  2641
CZ-6A DEB               
1 54298U 22151AR  22337.92200414  .00000131  00000+0  10462-3 0  9998
2 54298  98.7648 342.1051 0062851  30.1982 330.2785 14.05682578  2548
CZ-6A DEB               
1 54299U 22151AS  22338.25963434 -.00000026  00000+0  10139-4 0  9990
2 54299  98.8128 342.7648 0055296  19.5018 340.8249 14.06844226  2562
CZ-6A DEB               
1 54300U 22151AT  22338.47048623  .00000747  00000+0  46591-3 0  9990
2 54300  98.9038 343.5319 0060852 345.0094  14.9269 14.07017045  2591
CZ-6A DEB               
1 54301U 22151AU  22336.76060048  .00000357  00000+0  23564-3 0  9998
2 54301  98.9028 341.8494 0056828 357.0871   2.9959 14.07227231  2357
CZ-6A DEB               
1 54302U 22151AV  22338.47392023  .00001727  00000+0  42955-3 0  9997
2 54302  98.9631 345.4082 0141306 170.3802 190.0147 14.47326928  2688
CZ-6A DEB               
1 54303U 22151AW  22338.01652650  .00000143  00000+0  10720-3 0  9999
2 54303  98.8341 342.7237 0047584  29.0966 331.2840 14.08764981  2537
CZ-6A DEB               
1 54304U 22151AX  22338.44506453  .00000878  00000+0  53029-3 0  9990
2 54304  98.8353 343.1451 0046746  15.3514 344.9062 14.08628702  2593
CZ-6A DEB               
1 54305U 22151AY  22338.29433521  .00000216  00000+0  11438-3 0  9993
2 54305  98.8199 343.4133 0056333 121.9785 238.6885 14.22781121  2615
CZ-6A DEB               
1 54306U 22151AZ  22338.28335409  .00000205  00000+0  14010-3 0  9996
2 54306  98.8176 342.9216 0041092  18.9326 341.3361 14.09873038  2579
CZ-6A DEB               
1 54307U 22151BA  22338.27620529  .00003690  00000+0  12372-2 0  9995
2 54307  98.6179 342.5251 0131234 248.1140 110.6047 14.33127662  2610
CZ-6A DEB               
1 54308U 22151BB  22338.26650898  .00003645  00000+0  12214-2 0  9992
2 54308  98.6977 343.0319 0122781 244.3632 114.4826 14.33754293  2612
CZ-6A DEB               
1 54309U 22151BC  22338.48748334  .00000226  00000+0  15040-3 0  9993
2 54309  98.8170 343.1399 0038110  16.9393 343.3040 14.10430349  2606
CZ-6A DEB               
1 54310U 22151BD  22337.88092100  .00007144  00000+0  20336-2 0  9990
2 54310  98.6122 342.3693 0127954 226.1395 132.9165 14.40887960  2599
CZ-6A DEB               
1 54311U 22151BE  22338.21799269  .00003483  00000+0  10862-2 0  9994
2 54311  98.6977 343.0980 0127942 237.1314 121.7505 14.36919252  2617
CZ-6A DEB               
1 54312U 22151BF  22338.26665956  .00001448  00000+0  69960-3 0  9998
2 54312  98.9686 344.2003 0024167 265.1293  94.7123 14.20050241  2600
CZ-6A DEB               
1 54313U 22151BG  22338.20612842  .00004878  00000+0  14957-2 0  9994
2 54313  98.6943 343.0940 0125064 233.6962 125.2624 14.37726083  2611
CZ-6A DEB               
1 54314U 22151BH  22338.26223581  .00005879  00000+0  15304-2 0  9998
2 54314  98.6182 342.8767 0152903 229.9770 128.7920 14.43192436  2633
CZ-6A DEB               
1 54315U 22151BJ  22338.00647372  .00000223  00000+0  15105-3 0  9997
2 54315  98.8327 342.7280 0045207  32.1696 328.2218 14.09418761  2535
CZ-6A DEB               
1 54316U 22151BK  22338.00450945  .00000475  00000+0  29356-3 0  9998
2 54316  98.7969 342.5130 0042336  16.3656 343.8870 14.09552939  2543
CZ-6A DEB               
1 54317U 22151BL  22337.89406480  .00006406  00000+0  12202-2 0  9991
2 54317  98.7109 343.4660 0186325 217.1619 141.6559 14.53865812  2606
CZ-6A DEB               
1 54318U 22151BM  22338.25803040  .00000658  00000+0  41469-3 0  9997
2 54318  98.8158 342.7843 0055329  22.4280 337.9291 14.06961837  2567
CZ-6A DEB               
1 54319U 22151BN  22337.97821022  .00010807  00000+0  24917-2 0  9991
2 54319  98.6597 342.8692 0201372 243.8153 114.2207 14.43752572  2608
CZ-6A DEB               
1 54320U 22151BP  22338.00417027  .00000308  00000+0  25793-3 0  9993
2 54320  98.8420 342.1488 0136498 355.5438   4.4497 13.91182485  2519
CZ-6A DEB               
1 54321U 22151BQ  22338.29130143  .00000932  00000+0  30386-3 0  9993
2 54321  98.6881 343.1021 0127812 237.1644 121.7184 14.36611678  2626
CZ-6A DEB               
1 54322U 22151BR  22338.01566976  .00005471  00000+0  12246-2 0  9998
2 54322  98.7329 343.4364 0197752 238.9346 119.2302 14.45721032  2615
CZ-6A DEB               
1 54323U 22151BS  22338.47645982  .00000350  00000+0  23347-3 0  9990
2 54323  98.8081 342.9394 0056011   7.1252 353.0700 14.06633899  2613
CZ-6A DEB               
1 54324U 22151BT  22337.55162689  .00052020  00000+0  14697-2 0  9995
2 54324  98.6596 344.1920 0350712 206.9689 151.2922 14.92355326  2626
CZ-6A DEB               
1 54325U 22151BU  22338.46515679  .00000223  00000+0  14522-3 0  9994
2 54325  98.7846 342.9695 0034184  35.3909 324.9522 14.11846778  2613
CZ-6A DEB               
1 54326U 22151BV  22338.48128590  .00036982  00000+0  36161-2 0  9992
2 54326  99.0841 346.8969 0288370 230.1012 127.4515 14.65898765  2719
CZ-6A DEB               
1 54327U 22151BW  22338.45599763  .00000579  00000+0  36216-3 0  9999
2 54327  98.7884 342.8465 0050951  23.5707 336.7782 14.07930764  2596
CZ-6A DEB               
1 54328U 22151BX  22338.49305648  .00003744  00000+0  92090-3 0  9990
2 54328  98.7286 343.9123 0151920 219.7134 139.2855 14.46145581  2671
CZ-6A DEB               
1 54329U 22151BY  22338.45205035  .00002191  00000+0  49573-3 0  9999
2 54329  98.7360 344.0151 0169679 153.9590 207.0263 14.48770166  2675
CZ-6A DEB               
1 54330U 22151BZ  22338.23560844  .00001419  00000+0  70670-3 0  9993
2 54330  98.8026 343.0582 0063153  97.1909 263.6451 14.17510121  2583
CZ-6A DEB               
1 54331U 22151CA  22337.98457880  .00000409  00000+0  32794-3 0  9993
2 54331  98.7981 341.9087 0126500  28.3817 332.4159 13.92440887  2505
CZ-6A DEB               
1 54332U 22151CB  22338.24896200  .00001119  00000+0  57721-3 0  9993
2 54332  98.8003 343.0259 0043335  89.8021 270.8119 14.16643175  2591
CZ-6A DEB               
1 54333U 22151CC  22338.44603407  .00003729  00000+0  10671-2 0  9992
2 54333  98.7067 343.5070 0138618 231.4899 127.3793 14.40192030  2684
CZ-6A DEB               
1 54334U 22151CD  22338.24648162  .00003731  00000+0  10845-2 0  9994
2 54334  98.7083 343.2920 0136421 232.7583 126.1096 14.39611248  2653
CZ-6A DEB               
1 54335U 22151CE  22338.29525994  .00000615  00000+0  37433-3 0  9998
2 54335  98.7959 342.7766 0051406  43.0368 317.4805 14.09119799  2600
CZ-6A DEB               
1 54336U 22151CF  22338.48607554  .00000232  00000+0  16453-3 0  9997
2 54336  98.8077 342.9243 0061543  29.5775 330.8852 14.06025081  2630
CZ-6A DEB               
1 54337U 22151CG  22338.24858853  .00000311  00000+0  20747-3 0  9991
2 54337  98.8208 342.8276 0052110  21.1223 339.2082 14.07554552  2604
CZ-6A DEB               
1 54338U 22151CH  22338.50195077  .00000824  00000+0  49209-3 0  9996
2 54338  98.8304 343.2066 0043118  21.3731 338.9228 14.09525365  2642
CZ-6A DEB               
1 54339U 22151CJ  22338.50163791  .00000247  00000+0  16444-3 0  9999
2 54339  98.8074 343.0635 0044108  28.6701 331.6881 14.09532953  2640
CZ-6A DEB               
1 54340U 22151CK  22338.49013667  .00002329  00000+0  51733-3 0  9998
2 54340  98.7107 343.9685 0156288 202.5757 156.8510 14.50792216  2696
CZ-6A DEB               
1 54341U 22151CL  22338.44249038  .00000778  00000+0  39733-3 0  9999
2 54341  98.8053 343.2896 0051584  97.4170 263.2871 14.17807048  2627
CZ-6A DEB               
1 54342U 22151CM  22338.45760707  .00000231  00000+0  15956-3 0  9997
2 54342  98.7993 342.9096 0053114  30.9635 329.4648 14.07820617  2608
CZ-6A DEB               
1 54343U 22151CN  22338.42849991  .00000133  00000+0  99891-4 0  9990
2 54343  98.8136 343.0344 0042820  25.8950 334.4351 14.09667210  2609
CZ-6A DEB               
1 54344U 22151CP  22338.40485403 -.00000071  00000+0 -16658-4 0  9996
2 54344  98.8222 342.9556 0057325  26.3892 334.0177 14.06654457  2592
CZ-6A DEB               
1 54345U 22151CQ  22338.46361397  .00002686  00000+0  12205-2 0  9992
2 54345  98.7052 342.8124 0078397 272.0328  87.1872 14.21011180  2639
CZ-6A DEB               
1 54346U 22151CR  22338.46376887  .00002872  00000+0  67730-3 0  9994
2 54346  98.6507 343.4631 0154463 214.3498 144.7632 14.48037679  2689
CZ-6A DEB               
1 54347U 22151CS  22338.43730038  .00000315  00000+0  13905-3 0  9999
2 54347  98.7132 343.0593 0107155 257.0157 101.9041 14.27147124  2649
CZ-6A DEB               
1 54348U 22151CT  22338.23942078  .00000661  00000+0  25288-3 0  9998
2 54348  98.6944 342.8813 0107456 246.7660 112.2179 14.30896204  2629
CZ-6A DEB               
1 54349U 22151CU  22338.25803095  .00000455  00000+0  19970-3 0  9998
2 54349  98.7108 342.7950 0112602 263.9314  94.9026 14.25137130  2616
CZ-6A DEB               
1 54350U 22151CV  22338.27860121  .00000245  00000+0  10372-3 0  9999
2 54350  98.8159 343.7406 0069667 175.2930 184.8923 14.32878864  2634
CZ-6A DEB               
1 54351U 22151CW  22336.73554687  .00008398  00000+0  53284-2 0  9991
2 54351  99.0203 342.1870 0203389 321.2069  37.4637 13.94453632  2334
CZ-6A DEB               
1 54352U 22151CX  22338.29276750  .00003775  00000+0  93290-3 0  9993
2 54352  99.1014 345.8584 0202090 247.5716 110.3955 14.41122777  2650
CZ-6A DEB               
1 54353U 22151CY  22338.26374878  .00003358  00000+0  10239-2 0  9999
2 54353  99.1402 345.7927 0178598 256.2360 101.8890 14.33914024  2635
CZ-6A DEB               
1 54354U 22151CZ  22338.43343758  .00003744  00000+0  10513-2 0  9996
2 54354  98.8133 344.0291 0190340 252.1718 105.8623 14.36501719  2667
CZ-6A DEB               
1 54355U 22151DA  22338.50573817  .00151207  00000+0  71610-2 0  9999
2 54355  98.7981 345.9155 0288237 199.5774 159.4191 14.89083908  2765
